NORAD_CAT_ID,OBJECT_NAME,OBJECT_TYPE,EPOCH,MEAN_MOTION,ECCENTRICITY,INCLINATION,RA_OF_ASC_NODE,ARG_OF_PERICENTER,MEAN_ANOMALY,BSTAR,MEAN_MOTION_DOT,MEAN_MOTION_DDOT,TLE_LINE0,TLE_LINE1,TLE_LINE2,SEMIMAJOR_AXIS,PERIOD,APOGEE,PERIGEE,DECAYED
53540.0,STARLINK-4486,PAYLOAD,2024-04-28 15:36:43,15.08834671,0.0001406,53.2172,237.2912,82.837,277.2782,5.8122e-05,6.37e-06,0.0,0 STARLINK-4486,1 53540U 22101P   24119.65050318  .00000637  00000-0  58122-4 0  9996,2 53540  53.2172 237.2912 0001406  82.8370 277.2782 15.08834671 94320,6917.897,95.438,540.734,538.789,0.0
53540.0,STARLINK-4486,PAYLOAD,2024-04-29 01:09:02,15.08835567,0.0001326,53.2177,235.507,82.1182,277.9961,0.00013184,1.811e-05,0.0,0 STARLINK-4486,1 53540U 22101P   24120.04794508  .00001811  00000-0  13184-3 0  9990,2 53540  53.2177 235.5070 0001326  82.1182 277.9961 15.08835567 93696,6917.894,95.438,540.676,538.842,0.0
53540.0,STARLINK-4486,PAYLOAD,2024-04-29 13:52:07,15.08844163,0.000135,53.2162,233.1299,78.6086,281.5057,0.0003479,5.254e-05,0.0,0 STARLINK-4486,1 53540U 22101P   24120.57786460  .00005254  00000-0  34790-3 0  9997,2 53540  53.2162 233.1299 0001350  78.6086 281.5057 15.08844163 94462,6917.868,95.437,540.667,538.799,0.0
53540.0,STARLINK-4486,PAYLOAD,2024-04-30 13:42:54,15.0884018,0.0001378,53.2146,228.6678,80.1528,279.962,0.00030588,4.584e-05,0.0,0 STARLINK-4486,1 53540U 22101P   24121.57146858  .00004584  00000-0  30588-3 0  9995,2 53540  53.2146 228.6678 0001378  80.1528 279.9620 15.08840180 93925,6917.88,95.438,540.698,538.792,0.0
53540.0,STARLINK-4486,PAYLOAD,2024-05-01 13:33:40,15.08862371,0.0001327,53.2155,224.2077,82.3373,277.7769,0.00033358,5.028e-05,0.0,0 STARLINK-4486,1 53540U 22101P   24122.56505239  .00005028  00000-0  33358-3 0  9999,2 53540  53.2155 224.2077 0001327  82.3373 277.7769 15.08862371 94079,6917.812,95.436,540.595,538.759,0.0
53540.0,STARLINK-4486,PAYLOAD,2024-05-02 13:24:27,15.08845355,0.0001255,53.2157,219.7483,92.9718,267.1418,7.1893e-05,8.57e-06,0.0,0 STARLINK-4486,1 53540U 22101P   24123.55865719  .00000857  00000-0  71893-4 0  9993,2 53540  53.2157 219.7483 0001255  92.9718 267.1418 15.08845355 94225,6917.864,95.437,540.597,538.861,0.0
53540.0,STARLINK-4486,PAYLOAD,2024-05-03 13:15:14,15.08845002,0.0001594,53.2176,215.2911,103.7818,256.3352,2.0449e-06,-2.55e-06,0.0,0 STARLINK-4486,1 53540U 22101P   24124.55225162 -.00000255  00000-0  20449-5 0  9991,2 53540  53.2176 215.2911 0001594 103.7818 256.3352 15.08845002 95060,6917.865,95.437,540.833,538.627,0.0
53540.0,STARLINK-4486,PAYLOAD,2024-05-03 22:47:33,15.08835597,0.0001058,53.2135,213.5044,87.5087,272.6026,-3.2228e-05,-8.01e-06,0.0,0 STARLINK-4486,1 53540U 22101P   24124.94969751 -.00000801  00000-0 -32228-4 0  9998,2 53540  53.2135 213.5044 0001058  87.5087 272.6026 15.08835597 94432,6917.894,95.438,540.491,539.027,0.0
53540.0,STARLINK-4486,PAYLOAD,2024-05-04 13:06:02,15.08826324,0.0001313,53.2161,210.8273,97.0199,263.0943,-7.4161e-05,-1.467e-05,0.0,0 STARLINK-4486,1 53540U 22101P   24125.54586794 -.00001467  00000-0 -74161-4 0  9998,2 53540  53.2161 210.8273 0001313  97.0199 263.0943 15.08826324 94529,6917.922,95.438,540.696,538.879,0.0
53540.0,STARLINK-4486,PAYLOAD,2024-05-04 22:38:21,15.08835693,0.0001359,53.2166,209.0429,95.6895,264.4252,6.8925e-05,8.09e-06,0.0,0 STARLINK-4486,1 53540U 22101P   24125.94330644  .00000809  00000-0  68925-4 0  9991,2 53540  53.2166 209.0429 0001359  95.6895 264.4252 15.08835693 94587,6917.894,95.438,540.699,538.818,0.0
53540.0,STARLINK-4486,PAYLOAD,2024-05-05 14:32:12,15.08854014,0.0001245,53.2158,206.069,94.2984,265.8151,0.00069041,0.00010721,0.0,0 STARLINK-4486,1 53540U 22101P   24126.60570382  .00010721  00000-0  69041-3 0  9993,2 53540  53.2158 206.0690 0001245  94.2984 265.8151 15.08854014 95372,6917.838,95.437,540.564,538.841,0.0
53540.0,STARLINK-4486,PAYLOAD,2024-05-05 22:29:08,15.08850421,0.0001247,53.2162,204.5818,90.9005,269.213,0.00053822,8.291e-05,0.0,0 STARLINK-4486,1 53540U 22101P   24126.93690527  .00008291  00000-0  53822-3 0  9992,2 53540  53.2162 204.5818 0001247  90.9005 269.2130 15.08850421 95420,6917.849,95.437,540.576,538.851,0.0
53540.0,STARLINK-4486,PAYLOAD,2024-05-06 04:50:41,15.08854299,0.0001439,53.2151,203.3928,85.2235,274.8921,0.00052162,8.027e-05,0.0,0 STARLINK-4486,1 53540U 22101P   24127.20186389  .00008027  00000-0  52162-3 0  9992,2 53540  53.2151 203.3928 0001439  85.2235 274.8921 15.08854299 94776,6917.837,95.437,540.697,538.706,0.0
53540.0,STARLINK-4486,PAYLOAD,2024-05-06 12:47:36,15.08862235,0.000124,53.2152,201.9062,86.256,273.8573,0.00061854,9.576e-05,0.0,0 STARLINK-4486,1 53540U 22101P   24127.53305952  .00009576  00000-0  61854-3 0  9995,2 53540  53.2152 201.9062 0001240  86.2560 273.8573 15.08862235 95516,6917.812,95.436,540.535,538.82,0.0
53540.0,STARLINK-4486,PAYLOAD,2024-05-06 22:19:55,15.08854963,0.0001283,53.2145,200.1226,81.6328,278.4809,0.00030241,4.53e-05,0.0,0 STARLINK-4486,1 53540U 22101P   24127.93049781  .00004530  00000-0  30241-3 0  9995,2 53540  53.2145 200.1226 0001283  81.6328 278.4809 15.08854963 95577,6917.835,95.437,540.587,538.812,0.0
53540.0,STARLINK-4486,PAYLOAD,2024-05-07 11:02:59,15.08852355,0.0001194,53.2161,197.7413,100.2619,259.8508,0.00016893,2.403e-05,0.0,0 STARLINK-4486,1 53540U 22101P   24128.46041526  .00002403  00000-0  16893-3 0  9997,2 53540  53.2161 197.7413 0001194 100.2619 259.8508 15.08852355 95657,6917.843,95.437,540.534,538.882,0.0
53540.0,STARLINK-4486,PAYLOAD,2024-05-08 04:32:14,15.08843086,0.0001277,53.2137,194.4717,79.1442,280.9694,6.7362e-05,7.84e-06,0.0,0 STARLINK-4486,1 53540U 22101P   24129.18905891  .00000784  00000-0  67362-4 0  9999,2 53540  53.2137 194.4717 0001277  79.1442 280.9694 15.08843086 95079,6917.871,95.437,540.619,538.853,0.0
53540.0,STARLINK-4486,PAYLOAD,2024-05-08 10:53:47,15.08836649,0.0001376,53.2145,193.2815,81.1798,278.935,-2.5435e-05,-6.93e-06,0.0,0 STARLINK-4486,1 53540U 22101P   24129.45402335 -.00000693  00000-0 -25435-4 0  9990,2 53540  53.2145 193.2815 0001376  81.1798 278.9350 15.08836649 95119,6917.891,95.438,540.708,538.804,0.0
53540.0,STARLINK-4486,PAYLOAD,2024-05-09 10:44:34,15.08851601,0.0001525,53.2151,188.8212,85.7015,274.4151,0.00026222,3.889e-05,0.0,0 STARLINK-4486,1 53540U 22101P   24130.44761920  .00003889  00000-0  26222-3 0  9991,2 53540  53.2151 188.8212 0001525  85.7015 274.4151 15.08851601 95266,6917.845,95.437,540.765,538.655,0.0
53540.0,STARLINK-4486,PAYLOAD,2024-05-10 04:13:49,15.08839825,0.0001664,53.2151,185.5495,82.7378,277.3803,0.00027869,4.15e-05,0.0,0 STARLINK-4486,1 53540U 22101P   24131.17626853  .00004150  00000-0  27869-3 0  9997,2 53540  53.2151 185.5495 0001664  82.7378 277.3803 15.08839825 95378,6917.881,95.438,540.897,538.595,0.0
53540.0,STARLINK-4486,PAYLOAD,2024-05-10 10:35:22,15.08841964,0.0001636,53.215,184.3608,83.3747,276.7431,0.00028532,4.256e-05,0.0,0 STARLINK-4486,1 53540U 22101P   24131.44122851  .00004256  00000-0  28532-3 0  9991,2 53540  53.2150 184.3608 0001636  83.3747 276.7431 15.08841964 96105,6917.874,95.437,540.871,538.608,0.0
53540.0,STARLINK-4486,PAYLOAD,2024-05-10 20:07:40,15.08846973,0.000168,53.215,182.5769,83.9846,276.1338,0.00039556,6.014e-05,0.0,0 STARLINK-4486,1 53540U 22101P   24131.83866858  .00006014  00000-0  39556-3 0  9998,2 53540  53.2150 182.5769 0001680  83.9846 276.1338 15.08846973 96169,6917.859,95.437,540.886,538.562,0.0
53540.0,STARLINK-4486,PAYLOAD,2024-05-11 08:50:44,15.08912478,0.000176,53.2152,180.1989,95.3739,264.7454,0.003496,0.00055904,0.0,0 STARLINK-4486,1 53540U 22101P   24132.36857632  .00055904  00000-0  34960-2 0  9992,2 53540  53.2152 180.1989 0001760  95.3739 264.7454 15.08912478 95554,6917.659,95.433,540.741,538.306,0.0
53540.0,STARLINK-4486,PAYLOAD,2024-05-11 19:58:24,15.0894626,0.0001046,53.2154,178.1158,34.3815,325.7245,0.0033526,0.00053631,0.0,0 STARLINK-4486,1 53540U 22101P   24132.83223054  .00053631  00000-0  33526-2 0  9991,2 53540  53.2154 178.1158 0001046  34.3815 325.7245 15.08946260 95626,6917.556,95.431,540.144,538.697,0.0
53540.0,STARLINK-4486,PAYLOAD,2024-05-12 11:52:22,15.08672416,0.0001256,53.2143,175.1448,97.0367,263.0768,0.0011001,0.00017183,0.0,0 STARLINK-4486,1 53540U 22101P   24133.49470600  .00017183  00000-0  11001-2 0  9991,2 53540  53.2143 175.1448 0001256  97.0367 263.0768 15.08672416 95728,6918.393,95.448,541.127,539.389,0.0
53540.0,STARLINK-4486,PAYLOAD,2024-05-13 11:43:11,15.08847865,0.0001716,53.2145,170.6836,57.8695,302.2463,0.0026274,0.00041785,0.0,0 STARLINK-4486,1 53540U 22101P   24134.48832603  .00041785  00000-0  26274-2 0  9999,2 53540  53.2145 170.6836 0001716  57.8695 302.2463 15.08847865 95876,6917.856,95.437,540.908,538.534,0.0
53540.0,STARLINK-4486,PAYLOAD,2024-05-13 19:40:06,15.08856866,0.0001667,53.2145,169.1963,61.7963,298.3197,0.0017154,0.00027131,0.0,0 STARLINK-4486,1 53540U 22101P   24134.81952292  .00027131  00000-0  17154-2 0  9999,2 53540  53.2145 169.1963 0001667  61.7963 298.3197 15.08856866 96610,6917.829,95.436,540.847,538.541,0.0
53540.0,STARLINK-4486,PAYLOAD,2024-05-14 11:33:57,15.08869719,0.0001546,53.2147,166.2216,66.1379,293.9775,0.00099687,0.00015626,0.0,0 STARLINK-4486,1 53540U 22101P   24135.48191420  .00015626  00000-0  99687-3 0  9999,2 53540  53.2147 166.2216 0001546  66.1379 293.9775 15.08869719 96026,6917.79,95.436,540.724,538.585,0.0
53540.0,STARLINK-4486,PAYLOAD,2024-05-14 19:30:52,15.08874654,0.0001575,53.2143,164.7339,67.925,292.1909,0.00087443,0.00013669,0.0,0 STARLINK-4486,1 53540U 22101P   24135.81310780  .00013669  00000-0  87443-3 0  9990,2 53540  53.2143 164.7339 0001575  67.9250 292.1909 15.08874654 96765,6917.774,95.435,540.729,538.55,0.0
53540.0,STARLINK-4486,PAYLOAD,2024-05-15 08:13:56,15.08885841,0.0001555,53.2154,162.355,65.5075,294.6079,0.000804,0.00012547,0.0,0 STARLINK-4486,1 53540U 22101P   24136.34301332  .00012547  00000-0  80400-3 0  9992,2 53540  53.2154 162.3550 0001555  65.5075 294.6079 15.08885841 96151,6917.74,95.435,540.681,538.53,0.0
